     3.04           N: GNSS NAV DATA    M: MIXED            RINEX VERSION / TYPE
ssrcrin-15.6.1x                         20250101 170000 UTC PGM / RUN BY / DATE 
    18                                                      LEAP SECONDS        
                                                            END OF HEADER       
C44 2025 01 01 17 00 00 6.985240615904E-04 1.109601299731E-11 0.000000000000E+00
     1.000000000000E+00 1.457187500000E+02 3.619793636077E-09 1.873515618417E+00
     7.125549018383E-06 7.113302126527E-04 9.001232683659E-06 5.282632968903E+03
     3.204000000000E+05 3.445893526077E-08-2.434554497515E+00-3.771856427193E-08
     9.497796160762E-01 1.775312500000E+02 5.533527660267E-01-6.688850046024E-09
    -1.217907873609E-10 0.000000000000E+00 9.910000000000E+02 0.000000000000E+00
     2.000000000000E+00 0.000000000000E+00-1.200000000000E-09-1.200000000000E-09
     3.204180000000E+05 1.000000000000E+00
C22 2025 01 01 17 00 00 2.209243830293E-04 9.706013770483E-12 0.000000000000E+00
     1.000000000000E+00-1.678125000000E+02 3.239777806893E-09 7.175354330080E-01
    -8.389819413424E-06 4.385986831039E-04 5.611684173346E-06 5.282641698837E+03
     3.204000000000E+05-1.117587089539E-08-2.995745941415E-01-4.516914486885E-08
     9.810043736270E-01 2.581718750000E+02 3.591003211698E-01-6.666349108770E-09
    -1.678641350722E-10 0.000000000000E+00 9.910000000000E+02 0.000000000000E+00
     2.000000000000E+00 0.000000000000E+00 1.400000000000E-08 1.400000000000E-08
     3.204180000000E+05 1.000000000000E+00
C13 2025 01 01 17 00 00 7.203780114651E-05-4.716227408608E-12 0.000000000000E+00
     1.000000000000E+00-3.414531250000E+02 9.775407184947E-10-3.077841776304E+00
    -1.093931496143E-05 5.444194888696E-03-1.398706808686E-05 6.493367912292E+03
     3.204000000000E+05 7.078051567078E-08-9.518962668946E-01-7.869675755501E-08
     1.037705862694E+00 6.920000000000E+02-2.330009203081E+00-2.626537977278E-09
    -2.864405028253E-10 0.000000000000E+00 9.910000000000E+02 0.000000000000E+00
     2.000000000000E+00 0.000000000000E+00-9.500000000000E-09 2.800000000000E-09
     3.204180000000E+05 0.000000000000E+00
C08 2025 01 01 17 00 00 2.355767646804E-04-5.245759382433E-11 0.000000000000E+00
     1.000000000000E+00-3.552968750000E+02 7.711035481293E-10-2.167587416945E+00
    -1.151021569967E-05 3.037092625163E-03-1.159543171525E-05 6.493740871429E+03
     3.204000000000E+05 6.286427378654E-08-9.195998179836E-01-8.335337042809E-08
     1.075627142382E+00 6.290000000000E+02-3.119624069847E+00-2.535819912792E-09
    -3.182275411687E-10 0.000000000000E+00 9.910000000000E+02 0.000000000000E+00
     2.000000000000E+00 0.000000000000E+00 1.130000000000E-08-7.000000000000E-10
     3.204180000000E+05 0.000000000000E+00
C38 2025 01 01 17 00 00 2.004277193919E-04 2.136957277799E-12 0.000000000000E+00
     1.000000000000E+00-3.293906250000E+02 1.037543217840E-09-2.609835269200E+00
    -1.072371378541E-05 2.293335739523E-03-1.374771818519E-05 6.492971735001E+03
     3.204000000000E+05 6.984919309616E-08-9.553724952592E-01-5.261972546577E-08
     1.010904122386E+00 6.756718750000E+02-2.436260144425E+00-2.677611533268E-09
    -2.450102056585E-10 0.000000000000E+00 9.910000000000E+02 0.000000000000E+00
     2.000000000000E+00 0.000000000000E+00 3.000000000000E-09 3.000000000000E-09
     3.204180000000E+05 1.000000000000E+00
C10 2025 01 01 17 00 00-3.687158459798E-04-2.104538765479E-11 0.000000000000E+00
     1.000000000000E+00 1.644843750000E+02 1.120403812173E-09-8.163083657657E-01
     4.987232387066E-06 1.008913770784E-02 2.158572897315E-05 6.493123003006E+03
     3.204000000000E+05-4.190951585770E-08-3.138524058570E+00 2.663582563400E-07
     8.497798290151E-01-4.471562500000E+02-2.438238373935E+00-1.740072481003E-09
    -1.102545925463E-09 0.000000000000E+00 9.910000000000E+02 0.000000000000E+00
     2.000000000000E+00 0.000000000000E+00 6.100000000000E-09 3.000000000000E-09
     3.204180000000E+05 0.000000000000E+00
S44 2025 01 01 17 00 48 8.414499461651E-07 0.000000000000E+00 3.204320000000E+05
     7.321853200000E+03 2.301875000000E-03-2.250000000000E-07 6.300000000000E+01
     4.152168064000E+04-3.452500000000E-03-3.750000000000E-08 3.276700000000E+04
     1.250999200000E+03 1.067880000000E-01-3.250000000000E-06 6.000000000000E+01
C05 2025 01 01 17 00 00 1.738796709105E-04 2.857802883227E-11 0.000000000000E+00
     1.000000000000E+00 7.367031250000E+02 7.093152601134E-09 1.965246844739E+00
     2.413289621472E-05 1.274598645978E-03 9.842682629824E-06 6.493445989609E+03
     3.204000000000E+05-9.918585419655E-08 9.101583012323E-01 1.140870153904E-07
     8.537086520492E-02-2.967500000000E+02 2.662230631106E+00-5.963462687872E-09
     5.850243686132E-10 0.000000000000E+00 9.910000000000E+02 0.000000000000E+00
     2.000000000000E+00 0.000000000000E+00 2.000000000000E-10-9.500000000000E-09
     3.204276000000E+05 0.000000000000E+00
C60 2025 01 01 17 00 00 8.419156074524E-07 2.664535259100E-15 0.000000000000E+00
     1.000000000000E+00 6.697187500000E+02 8.080693736186E-09 2.906021159903E+00
     2.194102853537E-05 3.953477134928E-04 1.311069354415E-05 6.493438547134E+03
     3.204000000000E+05-1.089647412300E-07 8.618396721560E-01 8.661299943924E-08
     5.969954949158E-02-3.958437500000E+02 2.141857379700E+00-7.054579565841E-09
     5.735953211189E-10 0.000000000000E+00 9.910000000000E+02 0.000000000000E+00
     2.000000000000E+00 0.000000000000E+00 4.800000000000E-08 4.800000000000E-08
     3.204276000000E+05 1.000000000000E+00
C02 2025 01 01 17 00 00 6.958368467167E-04-2.299405110762E-11 0.000000000000E+00
     1.000000000000E+00 5.623281250000E+02 5.607376426879E-09 1.242445178749E+00
     1.850305125117E-05 8.210216183215E-04 1.691933721304E-05 6.493383119583E+03
     3.204000000000E+05-2.416782081127E-07 7.827126203109E-01-2.328306436539E-08
     9.587902478623E-02-5.123281250000E+02-2.330654525505E+00-4.616263714484E-09
     6.543129690472E-10 0.000000000000E+00 9.910000000000E+02 0.000000000000E+00
     2.000000000000E+00 0.000000000000E+00 1.700000000000E-09-1.380000000000E-08
     3.204276000000E+05 0.000000000000E+00
S36 2025 01 01 17 00 48 0.000000000000E+00 0.000000000000E+00 3.204630000000E+05
     4.200368800000E+04 0.000000000000E+00 0.000000000000E+00 6.300000000000E+01
     3.674846960000E+03 0.000000000000E+00 0.000000000000E+00 3.276700000000E+04
     0.000000000000E+00 0.000000000000E+00 0.000000000000E+00 4.200000000000E+01
E15 2025 01 01 16 50 00-1.484982203692E-04-2.231104190287E-12 0.000000000000E+00
     2.500000000000E+01 1.707500000000E+02 2.530819704513E-09 2.064914805407E+00
     8.057802915573E-06 4.389336099848E-04 9.462237358093E-07 5.440607608795E+03
     3.198000000000E+05-6.146728992462E-08-1.776026453328E+00 3.725290298462E-08
     9.996416032452E-01 3.398437500000E+02-1.182942034787E+00-5.557374344091E-09
     2.192948487964E-10 5.170000000000E+02 2.347000000000E+03
     3.120000000000E+00 0.000000000000E+00 3.026798367500E-09 4.190951585770E-09
     3.204650000000E+05
E27 2025 01 01 16 50 00-5.450150347315E-04-9.876544027065E-12 0.000000000000E+00
     2.500000000000E+01-2.056250000000E+01 3.515503577692E-09 1.624491918586E+00
    -9.499490261078E-07 3.205337561667E-04 6.396323442459E-06 5.440603750229E+03
     3.198000000000E+05-2.048909664154E-08 2.413505732293E+00 3.911554813385E-08
     9.642006792171E-01 2.045000000000E+02 5.550117560903E-01-5.509515207709E-09
    -5.589518540169E-10 5.170000000000E+02 2.347000000000E+03
     3.120000000000E+00 0.000000000000E+00-2.328306436539E-10 2.328306436539E-10
     3.204650000000E+05
E21 2025 01 01 16 50 00-6.376065430231E-04-2.273736754432E-12 0.000000000000E+00
     2.500000000000E+01-1.753125000000E+01 3.574434603834E-09 3.534700688186E-01
    -7.040798664093E-07 2.547873882577E-04 6.405636668205E-06 5.440602821350E+03
     3.198000000000E+05 2.980232238770E-08 2.413533893466E+00 6.519258022308E-08
     9.642286268041E-01 2.047500000000E+02 1.028304492804E+00-5.558802975028E-09
    -5.439512291806E-10 5.170000000000E+02 2.347000000000E+03
     3.120000000000E+00 0.000000000000E+00 0.000000000000E+00 6.984919309616E-10
     3.204650000000E+05
E30 2025 01 01 16 50 00-1.090671401471E-03-3.991829089500E-11 0.000000000000E+00
     2.500000000000E+01-2.125000000000E+01 3.519432312768E-09 1.984142830919E+00
    -1.069158315659E-06 5.762301152572E-04 6.325542926788E-06 5.440613794327E+03
     3.198000000000E+05-1.080334186554E-07 2.416125062244E+00-1.490116119385E-08
     9.620297585267E-01 2.042812500000E+02 9.737554784928E-01-5.588447066966E-09
    -6.100254100069E-10 5.170000000000E+02 2.347000000000E+03
     3.120000000000E+00 0.000000000000E+00 6.984919309616E-10 6.984919309616E-10
     3.204650000000E+05
E04 2025 01 01 16 50 00-1.215783413500E-04-9.521272659185E-12 0.000000000000E+00
     2.500000000000E+01-1.899687500000E+02 2.594750938935E-09-2.618826093076E+00
    -8.732080459595E-06 1.057977788150E-04 1.150183379650E-05 5.440619907379E+03
     3.198000000000E+05 3.352761268616E-08 3.132597319538E-01 1.676380634308E-08
     9.636314417003E-01 9.146875000000E+01-1.757876022867E+00-5.243075537999E-09
     3.085842823454E-10 5.170000000000E+02 2.347000000000E+03
     3.120000000000E+00 0.000000000000E+00-5.587935447693E-09-5.355104804039E-09
     3.204650000000E+05
E06 2025 01 01 16 50 00-6.540922913700E-05-4.419575816428E-12 0.000000000000E+00
     2.500000000000E+01-1.754687500000E+02 2.754043288386E-09-4.758437791120E-01
    -8.244067430496E-06 4.501333460212E-04 1.140683889389E-05 5.440617179871E+03
     3.198000000000E+05 1.676380634308E-08 3.156445619887E-01-1.490116119385E-08
     9.568555138329E-01 9.028125000000E+01 1.987768505143E+00-5.291648989849E-09
     3.110843864848E-10 5.170000000000E+02 2.347000000000E+03
     3.120000000000E+00 0.000000000000E+00 1.164153218269E-09 3.259629011154E-09
     3.204650000000E+05
